{"type":"Topology","objects":{"admin1":{"type":"GeometryCollection","geometries":[{"type":"Polygon","arcs":[[0,1,2]],"properties":{"ADM1_PCODE":"TF01","ADM1_EN":"Norvale","ISO3":"TFA"}},{"type":"Polygon","arcs":[[3,4,-2]],"properties":{"ADM1_PCODE":"TF02","ADM1_EN":"Estmarch","ISO3":"TFA"}},{"type":"Polygon","arcs":[[5,-1,6]],"properties":{"ADM1_PCODE":"TF03","ADM1_EN":"Sudlund","ISO3":"TFA"}},{"type":"Polygon","arcs":[[7,-4,-6]],"properties":{"ADM1_PCODE":"TF04","ADM1_EN":"Vaskaria","ISO3":"TFA"}}]}},"arcs":[[[30,14],[32,14]],[[32,14],[32,16]],[[32,16],[30,16],[30,14]],[[32,14],[34,14]],[[34,14],[34,16],[32,16]],[[32,12],[32,14]],[[30,14],[30,12],[32,12]],[[32,12],[34,12],[34,14]]],"bbox":[30,12,34,16]}