{
 "type": "FeatureCollection",
 "features": [
  {
   "type": "Feature",
   "properties": {
    "ADM1_PCODE": "TF01",
    "ADM1_EN": "Norvale",
    "ISO3": "TFA"
   },
   "geometry": {
    "type": "Polygon",
    "coordinates": [
     [
      [
       30,
       14
      ],
      [
       32,
       14
      ],
      [
       32,
       16
      ],
      [
       30,
       16
      ],
      [
       30,
       14
      ]
     ]
    ]
   }
  },
  {
   "type": "Feature",
   "properties": {
    "ADM1_PCODE": "TF02",
    "ADM1_EN": "Estmarch",
    "ISO3": "TFA"
   },
   "geometry": {
    "type": "Polygon",
    "coordinates": [
     [
      [
       32,
       14
      ],
      [
       34,
       14
      ],
      [
       34,
       16
      ],
      [
       32,
       16
      ],
      [
       32,
       14
      ]
     ]
    ]
   }
  },
  {
   "type": "Feature",
   "properties": {
    "ADM1_PCODE": "TF03",
    "ADM1_EN": "Sudlund",
    "ISO3": "TFA"
   },
   "geometry": {
    "type": "Polygon",
    "coordinates": [
     [
      [
       30,
       12
      ],
      [
       32,
       12
      ],
      [
       32,
       14
      ],
      [
       30,
       14
      ],
      [
       30,
       12
      ]
     ]
    ]
   }
  },
  {
   "type": "Feature",
   "properties": {
    "ADM1_PCODE": "TF04",
    "ADM1_EN": "Vaskaria",
    "ISO3": "TFA"
   },
   "geometry": {
    "type": "Polygon",
    "coordinates": [
     [
      [
       32,
       12
      ],
      [
       34,
       12
      ],
      [
       34,
       14
      ],
      [
       32,
       14
      ],
      [
       32,
       12
      ]
     ]
    ]
   }
  }
 ]
}